{"type": "FeatureCollection", "features": [ {"type": "Feature", "properties": {"norad_id": 66526, "name": "STARLINK-35932", "group": "last-30-days", "lat": 37.21358808832159, "lon": 144.55387054001955, "alt_km": 438.9490537022275, "timestamp": "2025-12-18T17:50:13.698581+00:00", "meta": {"OBJECT_NAME": "STARLINK-35932", "OBJECT_ID": "2025-265L", "EPOCH": "2025-12-18T08:00:01.999872", "MEAN_MOTION": 15.40677844, "ECCENTRICITY": 0.00013573, "INCLINATION": 43.0005, "RA_OF_ASC_NODE": 21.4973, "ARG_OF_PERICENTER": 265.3978, "MEAN_ANOMALY": 96.0981, "EPHEMERIS_TYPE": 0, "CLASSIFICATION_TYPE": "U", "NORAD_CAT_ID": 66526, "ELEMENT_SET_NO": 999, "REV_AT_EPOCH": 578, "BSTAR": 0.00037904102, "MEAN_MOTION_DOT": 0.0001555, "MEAN_MOTION_DDOT": 0}, "tle": {"line1": "1 66526U 25265L   25352.33335648  .00015550  00000+0  37904-3 0  9998", "line2": "2 66526  43.0005  21.4973 0001357 265.3978  96.0981 15.40677844  5780"}}, "geometry": {"type": "Point", "coordinates": [144.55387054001955, 37.21358808832159]}}, {"type": "Feature", "properties": {"norad_id": 66527, "name": "STARLINK-35935", "group": "last-30-days", "lat": -15.727698485471986, "lon": -143.48057947846928, "alt_km": 440.181260057916, "timestamp": "2025-12-18T17:50:13.698594+00:00", "meta": {"OBJECT_NAME": "STARLINK-35935", "OBJECT_ID": "2025-265M", "EPOCH": "2025-12-18T08:00:01.999872", "MEAN_MOTION": 15.44277234, "ECCENTRICITY": 0.00014791, "INCLINATION": 42.9998, "RA_OF_ASC_NODE": 21.3012, "ARG_OF_PERICENTER": 284.2113, "MEAN_ANOMALY": 159.2241, "EPHEMERIS_TYPE": 0, "CLASSIFICATION_TYPE": "U", "NORAD_CAT_ID": 66527, "ELEMENT_SET_NO": 999, "REV_AT_EPOCH": 589, "BSTAR": -0.048192431, "MEAN_MOTION_DOT": -0.02021488, "MEAN_MOTION_DDOT": 0}, "tle": {"line1": "1 66527U 25265M   25352.33335648 -.02021488  00000+0 -48192-1 0  9999", "line2": "2 66527  42.9998  21.3012 0001479 284.2113 159.2241 15.44277234  5895"}}, "geometry": {"type": "Point", "coordinates": [-143.48057947846928, -15.727698485471986]}}, {"type": "Feature", "properties": {"norad_id": 66528, "name": "STARLINK-35928", "group": "last-30-days", "lat": -32.50538848956858, "lon": -118.000495580516, "alt_km": 416.85410958939156, "timestamp": "2025-12-18T17:50:13.698605+00:00", "meta": {"OBJECT_NAME": "STARLINK-35928", "OBJECT_ID": "2025-265N", "EPOCH": "2025-12-18T02:55:42.513312", "MEAN_MOTION": 15.50625019, "ECCENTRICITY": 0.00013747, "INCLINATION": 42.9986, "RA_OF_ASC_NODE": 22.4901, "ARG_OF_PERICENTER": 271.9059, "MEAN_ANOMALY": 88.1644, "EPHEMERIS_TYPE": 0, "CLASSIFICATION_TYPE": "U", "NORAD_CAT_ID": 66528, "ELEMENT_SET_NO": 999, "REV_AT_EPOCH": 459, "BSTAR": 0.0011038933, "MEAN_MOTION_DOT": 0.00065065, "MEAN_MOTION_DDOT": 0}, "tle": {"line1": "1 66528U 25265N   25352.12201983  .00065065  00000+0  11039-2 0  9997", "line2": "2 66528  42.9986  22.4901 0001374 271.9059  88.1644 15.50625019  4596"}}, "geometry": {"type": "Point", "coordinates": [-118.000495580516, -32.50538848956858]}}, {"type": "Feature", "properties": {"norad_id": 66529, "name": "STARLINK-35933", "group": "last-30-days", "lat": -4.782187292081182, "lon": 14.282239906221823, "alt_km": 444.3008554550843, "timestamp": "2025-12-18T17:50:13.698616+00:00", "meta": {"OBJECT_NAME": "STARLINK-35933", "OBJECT_ID": "2025-265P", "EPOCH": "2025-12-18T02:18:32.533632", "MEAN_MOTION": 15.40709507, "ECCENTRICITY": 0.000124, "INCLINATION": 43.0015, "RA_OF_ASC_NODE": 23.1622, "ARG_OF_PERICENTER": 253.0252, "MEAN_ANOMALY": 107.0469, "EPHEMERIS_TYPE": 0, "CLASSIFICATION_TYPE": "U", "NORAD_CAT_ID": 66529, "ELEMENT_SET_NO": 999, "REV_AT_EPOCH": 458, "BSTAR": 0.0010675699, "MEAN_MOTION_DOT": 0.00044566, "MEAN_MOTION_DDOT": 0}, "tle": {"line1": "1 66529U 25265P   25352.09620988  .00044566  00000+0  10676-2 0  9993", "line2": "2 66529  43.0015  23.1622 0001240 253.0252 107.0469 15.40709507  4587"}}, "geometry": {"type": "Point", "coordinates": [14.282239906221823, -4.782187292081182]}}, {"type": "Feature", "properties": {"norad_id": 66530, "name": "STARLINK-35961", "group": "last-30-days", "lat": 12.23422469422317, "lon": 32.82726392263888, "alt_km": 441.6406285736466, "timestamp": "2025-12-18T17:50:13.698627+00:00", "meta": {"OBJECT_NAME": "STARLINK-35961", "OBJECT_ID": "2025-265Q", "EPOCH": "2025-12-17T12:11:53.028960", "MEAN_MOTION": 15.40685219, "ECCENTRICITY": 7.762e-05, "INCLINATION": 43.0003, "RA_OF_ASC_NODE": 26.4907, "ARG_OF_PERICENTER": 291.5722, "MEAN_ANOMALY": 68.5051, "EPHEMERIS_TYPE": 0, "CLASSIFICATION_TYPE": "U", "NORAD_CAT_ID": 66530, "ELEMENT_SET_NO": 999, "REV_AT_EPOCH": 449, "BSTAR": 0.0012642944, "MEAN_MOTION_DOT": 0.00052849, "MEAN_MOTION_DDOT": 0}, "tle": {"line1": "1 66530U 25265Q   25351.50825265  .00052849  00000+0  12643-2 0  9994", "line2": "2 66530  43.0003  26.4907 0000776 291.5722  68.5051 15.40685219  4491"}}, "geometry": {"type": "Point", "coordinates": [32.82726392263888, 12.23422469422317]}}, {"type": "Feature", "properties": {"norad_id": 66531, "name": "STARLINK-35960", "group": "last-30-days", "lat": 27.611220489833116, "lon": 53.45612046347488, "alt_km": 440.32088540366385, "timestamp": "2025-12-18T17:50:13.698638+00:00", "meta": {"OBJECT_NAME": "STARLINK-35960", "OBJECT_ID": "2025-265R", "EPOCH": "2025-12-18T06:45:40.200192", "MEAN_MOTION": 15.40712881, "ECCENTRICITY": 0.0001453, "INCLINATION": 43.0012, "RA_OF_ASC_NODE": 21.9731, "ARG_OF_PERICENTER": 253.3902, "MEAN_ANOMALY": 106.6795, "EPHEMERIS_TYPE": 0, "CLASSIFICATION_TYPE": "U", "NORAD_CAT_ID": 66531, "ELEMENT_SET_NO": 999, "REV_AT_EPOCH": 461, "BSTAR": 0.0010792444, "MEAN_MOTION_DOT": 0.00045065, "MEAN_MOTION_DDOT": 0}, "tle": {"line1": "1 66531U 25265R   25352.28171528  .00045065  00000+0  10792-2 0  9992", "line2": "2 66531  43.0012  21.9731 0001453 253.3902 106.6795 15.40712881  4615"}}, "geometry": {"type": "Point", "coordinates": [53.45612046347488, 27.611220489833116]}}, {"type": "Feature", "properties": {"norad_id": 66532, "name": "STARLINK-35914", "group": "last-30-days", "lat": 39.13703845642833, "lon": 80.0860625914005, "alt_km": 438.47215588566814, "timestamp": "2025-12-18T17:50:13.698649+00:00", "meta": {"OBJECT_NAME": "STARLINK-35914", "OBJECT_ID": "2025-265S", "EPOCH": "2025-12-18T03:32:30.146496", "MEAN_MOTION": 15.40722847, "ECCENTRICITY": 0.00011767, "INCLINATION": 43.0014, "RA_OF_ASC_NODE": 22.6846, "ARG_OF_PERICENTER": 247.6775, "MEAN_ANOMALY": 112.3957, "EPHEMERIS_TYPE": 0, "CLASSIFICATION_TYPE": "U", "NORAD_CAT_ID": 66532, "ELEMENT_SET_NO": 999, "REV_AT_EPOCH": 459, "BSTAR": 0.00049121103, "MEAN_MOTION_DOT": 0.00020285, "MEAN_MOTION_DDOT": 0}, "tle": {"line1": "1 66532U 25265S   25352.14757114  .00020285  00000+0  49121-3 0  9995", "line2": "2 66532  43.0014  22.6846 0001176 247.6775 112.3957 15.40722847  4593"}}, "geometry": {"type": "Point", "coordinates": [80.0860625914005, 39.13703845642833]}}, {"type": "Feature", "properties": {"norad_id": 66533, "name": "STARLINK-35707", "group": "last-30-days", "lat": 41.17984364630317, "lon": 129.31879858284094, "alt_km": 438.29985266904623, "timestamp": "2025-12-18T17:50:13.698662+00:00", "meta": {"OBJECT_NAME": "STARLINK-35707", "OBJECT_ID": "2025-265T", "EPOCH": "2025-12-18T08:00:01.999872", "MEAN_MOTION": 15.40681297, "ECCENTRICITY": 0.00011863, "INCLINATION": 43.0007, "RA_OF_ASC_NODE": 21.5262, "ARG_OF_PERICENTER": 269.2743, "MEAN_ANOMALY": 79.7716, "EPHEMERIS_TYPE": 0, "CLASSIFICATION_TYPE": "U", "NORAD_CAT_ID": 66533, "ELEMENT_SET_NO": 999, "REV_AT_EPOCH": 589, "BSTAR": 0.00038648883, "MEAN_MOTION_DOT": 0.00015864, "MEAN_MOTION_DDOT": 0}, "tle": {"line1": "1 66533U 25265T   25352.33335648  .00015864  00000+0  38649-3 0  9991", "line2": "2 66533  43.0007  21.5262 0001186 269.2743  79.7716 15.40681297  5898"}}, "geometry": {"type": "Point", "coordinates": [129.31879858284094, 41.17984364630317]}}, {"type": "Feature", "properties": {"norad_id": 66534, "name": "STARLINK-35976", "group": "last-30-days", "lat": 16.846288365939728, "lon": -179.91822834682392, "alt_km": 441.82659820402296, "timestamp": "2025-12-18T17:50:13.698673+00:00", "meta": {"OBJECT_NAME": "STARLINK-35976", "OBJECT_ID": "2025-265U", "EPOCH": "2025-12-18T08:00:01.999872", "MEAN_MOTION": 15.40674165, "ECCENTRICITY": 0.0001106, "INCLINATION": 43.0002, "RA_OF_ASC_NODE": 21.4061, "ARG_OF_PERICENTER": 275.1513, "MEAN_ANOMALY": 123.6708, "EPHEMERIS_TYPE": 0, "CLASSIFICATION_TYPE": "U", "NORAD_CAT_ID": 66534, "ELEMENT_SET_NO": 999, "REV_AT_EPOCH": 589, "BSTAR": 0.00039723299, "MEAN_MOTION_DOT": 0.00016311, "MEAN_MOTION_DDOT": 0}, "tle": {"line1": "1 66534U 25265U   25352.33335648  .00016311  00000+0  39723-3 0  9994", "line2": "2 66534  43.0002  21.4061 0001106 275.1513 123.6708 15.40674165  5899"}}, "geometry": {"type": "Point", "coordinates": [-179.91822834682392, 16.846288365939728]}}, {"type": "Feature", "properties": {"norad_id": 66535, "name": "STARLINK-35514", "group": "last-30-days", "lat": 8.632488242334567, "lon": -170.36276993989432, "alt_km": 442.93651148772733, "timestamp": "2025-12-18T17:50:13.698684+00:00", "meta": {"OBJECT_NAME": "STARLINK-35514", "OBJECT_ID": "2025-265V", "EPOCH": "2025-12-18T08:00:01.999872", "MEAN_MOTION": 15.40678713, "ECCENTRICITY": 0.0001527, "INCLINATION": 43, "RA_OF_ASC_NODE": 21.3759, "ARG_OF_PERICENTER": 270.8582, "MEAN_ANOMALY": 140.3938, "EPHEMERIS_TYPE": 0, "CLASSIFICATION_TYPE": "U", "NORAD_CAT_ID": 66535, "ELEMENT_SET_NO": 999, "REV_AT_EPOCH": 589, "BSTAR": 0.00040850238, "MEAN_MOTION_DOT": 0.00016786, "MEAN_MOTION_DDOT": 0}, "tle": {"line1": "1 66535U 25265V   25352.33335648  .00016786  00000+0  40850-3 0  9994", "line2": "2 66535  43.0000  21.3759 0001527 270.8582 140.3938 15.40678713  5890"}}, "geometry": {"type": "Point", "coordinates": [-170.36276993989432, 8.632488242334567]}}]}